SKY MUSTER 2 (NBN1B)    
1 41794U 16060B   26165.78868872 -.00000238  00000+0  00000+0 0  9994
2 41794   0.0169 327.8167 0001279 110.1865 253.8137  1.00270335 35499
HIMAWARI-9              
1 41836U 16064A   26165.93041942 -.00000270  00000+0  00000+0 0  9999
2 41836   0.0508 146.5149 0000809 354.1602 238.2669  1.00269766 35185
SHIJIAN-17 (SJ-17)      
1 41838U 16065A   26165.73614361  .00000059  00000+0  00000+0 0  9995
2 41838   5.7466  72.6341 0001710  28.9025 305.9739  0.99853934 35174
GOES 16                 
1 41866U 16071A   26166.17128211 -.00000087  00000+0  00000+0 0  9998
2 41866   0.3361  85.5214 0000206 301.2128 193.6968  1.00270910 35088
TIANLIAN 1-04           
1 41869U 16072A   26166.15137917  .00000034  00000+0  00000+0 0  9994
2 41869   0.8627  82.9306 0042282  89.8117 321.9804  1.00271061 35286
WGS F8 (USA 272)        
1 41879U 16075A   26165.98725531  .00000000  00000+0  00000+0 0  9996
2 41879   0.0414  48.5073 0000204 308.9676  51.0320  1.00268143 34791
FENGYUN 4A              
1 41882U 16077A   26165.99838347 -.00000354  00000+0  00000+0 0  9996
2 41882   2.3160  80.3067 0008715 153.1278 153.0482  1.00269655 34902
ECHOSTAR 19             
1 41893U 16079A   26166.16572440 -.00000134  00000+0  00000+0 0  9995
2 41893   0.0126  36.0872 0001105  46.0062 143.9205  1.00271215 34681
JCSAT-110A (JCSAT-15)   
1 41903U 16082A   26166.02278028 -.00000346  00000+0  00000+0 0  9996
2 41903   0.0175 353.9004 0000318 104.6238 283.0582  1.00269997 34730
STAR ONE D1             
1 41904U 16082B   26166.16016964 -.00000207  00000+0  00000+0 0  9997
2 41904   0.0180  47.3456 0002304  48.3048 141.4679  1.00271464 34750
TJS-2                   
1 41911U 17001A   26166.17525124 -.00000003  00000+0  00000+0 0  9995
2 41911   0.8285  85.3508 0000491  48.9494 258.8310  1.00273110 34696
SBIRS GEO-4 (USA 273)   
1 41937U 17004A   26166.19190160  .00000126  00000+0  00000+0 0  9991
2 41937   2.2393  43.2243 0001874  33.2818 276.9576  1.00271446 34574
HISPASAT 36W-1          
1 41942U 17006A   26165.68161281 -.00000238  00000+0  00000+0 0  9999
2 41942   0.0069 296.5954 0001017 148.8992  26.8717  1.00270953 34226
TELKOM 3S               
1 41944U 17007A   26166.05947593 -.00000358  00000+0  00000+0 0  9995
2 41944   0.0146  51.2466 0002026  28.5857 322.9360  1.00271680 34113
INTELSAT 32E (IS-32E)   
1 41945U 17007B   26166.17916154 -.00000265  00000+0  00000+0 0  9995
2 41945   0.0056  40.0423 0000779 269.6287 335.1203  1.00270289 34207
ECHOSTAR 23             
1 42070U 17014A   26166.17128211 -.00000053  00000+0  00000+0 0  9997
2 42070   0.0174 354.0209 0002059  88.3162 132.8895  1.00270863 33902
WGS F9 (USA 275)        
1 42075U 17016A   26166.18540155  .00000000  00000+0  00000+0 0  9991
2 42075   0.0277 333.8389 0000245 310.9743  33.3972  1.00270344 33870
SES-10                  
1 42432U 17017A   26165.81806885 -.00000267  00000+0  00000+0 0  9999
2 42432   0.0194  30.2411 0002584  59.7274  40.7562  1.00269770 33737
CHINASAT 16 (SJ-13)     
1 42662U 17018A   26165.85322528 -.00000346  00000+0  00000+0 0  9994
2 42662   0.0989  90.5906 0004172 139.3731  90.8820  1.00269649 33727
KOREASAT 7              
1 42691U 17023A   26166.10739352 -.00000357  00000+0  00000+0 0  9990
2 42691   0.0243  26.5227 0000767  58.5528 332.8809  1.00271661 33340
SGDC                    
1 42692U 17023B   26165.47806148 -.00000242  00000+0  00000+0 0  9991
2 42692   0.0452  77.1488 0002449  15.1157 267.7661  1.00271564 33388
GSAT-9                  
1 42695U 17024A   26166.05322593 -.00000281  00000+0  00000+0 0  9990
2 42695   0.0137 111.9898 0002528 335.5485 292.3110  1.00270089 33276
INMARSAT 5-F4           
1 42698U 17025A   26166.02003134  .00000080  00000+0  00000+0 0  9994
2 42698   0.0183  12.7512 0000847 353.5300 320.7236  1.00270047 33256
SES-15                  
1 42709U 17026A   26165.94829882  .00000065  00000+0  00000+0 0  9997
2 42709   0.0208 333.5526 0000964  35.1417 106.7619  1.00267517  7412
QZS-2 (MICHIBIKI-2)     
1 42738U 17028A   26165.52433266 -.00000137  00000+0  00000+0 0  9993
2 42738  39.4315 243.1943 0760401 269.2281  80.7522  1.00284682  7591
VIASAT-2                
1 42740U 17029A   26166.17393206 -.00000261  00000+0  00000+0 0  9996
2 42740   0.0166 299.4086 0000228  24.3036 292.4741  1.00271171 33184
EUTELSAT 172B           
1 42741U 17029B   26166.15051250 -.00000001  00000+0  00000+0 0  9997
2 42741   0.0111  81.1563 0000194 188.1668 220.3271  1.00270811 33721
GSAT-19                 
1 42747U 17031A   26166.19718829  .00000129  00000+0  00000+0 0  9992
2 42747   0.0436 265.8258 0007083 160.7052 315.8120  1.00273875 33126
ECHOSTAR 21             
1 42749U 17032A   26166.18973492  .00000070  00000+0  00000+0 0  9998
2 42749   1.7713 355.5821 0002028  96.1366 250.3350  1.00272583 33078
BULGARIASAT-1           
1 42801U 17038A   26165.96717196  .00000000  00000+0  00000+0 0  9998
2 42801   0.0281 344.2892 0003309 117.9974 151.0591  1.00270062 32828
HELLAS-SAT 3            
1 42814U 17040A   26166.19545494  .00000156  00000+0  00000+0 0  9993
2 42814   0.0448  39.4249 0004707  12.9080 320.4974  1.00270129 32787
GSAT-17                 
1 42815U 17040B   26166.05322593  .00000000  00000+0  00000+0 0  9990
2 42815   0.0205 356.4884 0002096 309.5525  69.9627  1.00268994 32769
