OBJECT_NAME,OBJECT_ID,EPOCH,MEAN_MOTION,ECCENTRICITY,INCLINATION,RA_OF_ASC_NODE,ARG_OF_PERICENTER,MEAN_ANOMALY,EPHEMERIS_TYPE,CLASSIFICATION_TYPE,NORAD_CAT_ID,ELEMENT_SET_NO,REV_AT_EPOCH,BSTAR,MEAN_MOTION_DOT,MEAN_MOTION_DDOT
SKY MUSTER 2 (NBN1B),2016-060B,2026-06-14T18:55:42.705408,1.00270335,.00012796,0.0169,327.8167,110.1865,253.8137,0,U,41794,999,3549,0,-.238E-5,0
HIMAWARI-9,2016-064A,2026-06-14T22:19:48.237888,1.00269766,.0000809,0.0508,146.5149,354.1602,238.2669,0,U,41836,999,3518,0,-.27E-5,0
SHIJIAN-17 (SJ-17),2016-065A,2026-06-14T17:40:02.807904,0.99853934,.000171,5.7466,72.6341,28.9025,305.9739,0,U,41838,999,3517,0,.59E-6,0
GOES 16,2016-071A,2026-06-15T04:06:38.774304,1.00270910,.0000206,0.3361,85.5214,301.2128,193.6968,0,U,41866,999,3508,0,-.87E-6,0
TIANLIAN 1-04,2016-072A,2026-06-15T03:37:59.160288,1.00271061,.0042282,0.8627,82.9306,89.8117,321.9804,0,U,41869,999,3528,0,.34E-6,0
WGS F8 (USA 272),2016-075A,2026-06-14T23:41:38.858784,1.00268143,.0000204,0.0414,48.5073,308.9676,51.0320,0,U,41879,999,3479,0,0,0
FENGYUN 4A,2016-077A,2026-06-14T23:57:40.331808,1.00269655,.0008715,2.3160,80.3067,153.1278,153.0482,0,U,41882,999,3490,0,-.354E-5,0
ECHOSTAR 19,2016-079A,2026-06-15T03:58:38.588160,1.00271215,.0001105,0.0126,36.0872,46.0062,143.9205,0,U,41893,999,3468,0,-.134E-5,0
JCSAT-110A (JCSAT-15),2016-082A,2026-06-15T00:32:48.216192,1.00269997,.0000318,0.0175,353.9004,104.6238,283.0582,0,U,41903,999,3473,0,-.346E-5,0
STAR ONE D1,2016-082B,2026-06-15T03:50:38.656896,1.00271464,.0002304,0.0180,47.3456,48.3048,141.4679,0,U,41904,999,3475,0,-.207E-5,0
TJS-2,2017-001A,2026-06-15T04:12:21.707136,1.00273110,.0000491,0.8285,85.3508,48.9494,258.8310,0,U,41911,999,3469,0,-.3E-7,0
SBIRS GEO-4 (USA 273),2017-004A,2026-06-15T04:36:20.298240,1.00271446,.0001874,2.2393,43.2243,33.2818,276.9576,0,U,41937,999,3457,0,.126E-5,0
HISPASAT 36W-1,2017-006A,2026-06-14T16:21:31.346784,1.00270953,.00010176,0.0069,296.5954,148.8992,26.8717,0,U,41942,999,3422,0,-.238E-5,0
TELKOM 3S,2017-007A,2026-06-15T01:25:38.720352,1.00271680,.0002026,0.0146,51.2466,28.5857,322.9360,0,U,41944,999,3411,0,-.358E-5,0
INTELSAT 32E (IS-32E),2017-007B,2026-06-15T04:17:59.557056,1.00270289,.0000779,0.0056,40.0423,269.6287,335.1203,0,U,41945,999,3420,0,-.265E-5,0
ECHOSTAR 23,2017-014A,2026-06-15T04:06:38.774304,1.00270863,.0002059,0.0174,354.0209,88.3162,132.8895,0,U,42070,999,3390,0,-.53E-6,0
WGS F9 (USA 275),2017-016A,2026-06-15T04:26:58.693920,1.00270344,.0000245,0.0277,333.8389,310.9743,33.3972,0,U,42075,999,3387,0,0,0
SES-10,2017-017A,2026-06-14T19:38:01.148640,1.00269770,.00025847,0.0194,30.2411,59.7274,40.7562,0,U,42432,999,3373,0,-.267E-5,0
CHINASAT 16 (SJ-13),2017-018A,2026-06-14T20:28:38.664192,1.00269649,.00041723,0.0989,90.5906,139.3731,90.8820,0,U,42662,999,3372,0,-.346E-5,0
KOREASAT 7,2017-023A,2026-06-15T02:34:38.800128,1.00271661,.0000767,0.0243,26.5227,58.5528,332.8809,0,U,42691,999,3334,0,-.357E-5,0
SGDC,2017-023B,2026-06-14T11:28:24.511872,1.00271564,.0002449,0.0452,77.1488,15.1157,267.7661,0,U,42692,999,3338,0,-.242E-5,0
GSAT-9,2017-024A,2026-06-15T01:16:38.720352,1.00270089,.0002528,0.0137,111.9898,335.5485,292.3110,0,U,42695,999,3327,0,-.281E-5,0
INMARSAT 5-F4,2017-025A,2026-06-15T00:28:50.707776,1.00270047,.0000847,0.0183,12.7512,353.5300,320.7236,0,U,42698,999,3325,0,.8E-6,0
SES-15,2017-026A,2026-06-14T22:45:33.018048,1.00267517,.0000964,0.0208,333.5526,35.1417,106.7619,0,U,42709,999,741,0,.65E-6,0
QZS-2 (MICHIBIKI-2),2017-028A,2026-06-14T12:35:02.341824,1.00284682,.07604012,39.4315,243.1943,269.2281,80.7522,0,U,42738,999,759,0,-.137E-5,0
VIASAT-2,2017-029A,2026-06-15T04:10:27.729984,1.00271171,.0000228,0.0166,299.4086,24.3036,292.4741,0,U,42740,999,3318,0,-.261E-5,0
EUTELSAT 172B,2017-029B,2026-06-15T03:36:44.280000,1.00270811,.0000194,0.0111,81.1563,188.1668,220.3271,0,U,42741,999,3372,0,-.1E-7,0
GSAT-19,2017-031A,2026-06-15T04:43:57.068256,1.00273875,.0007083,0.0436,265.8258,160.7052,315.8120,0,U,42747,999,3312,0,.129E-5,0
ECHOSTAR 21,2017-032A,2026-06-15T04:33:13.097088,1.00272583,.0002028,1.7713,355.5821,96.1366,250.3350,0,U,42749,999,3307,0,.7E-6,0
BULGARIASAT-1,2017-038A,2026-06-14T23:12:43.657344,1.00270062,.0003309,0.0281,344.2892,117.9974,151.0591,0,U,42801,999,3282,0,0,0
HELLAS-SAT 3,2017-040A,2026-06-15T04:41:27.306816,1.00270129,.0004707,0.0448,39.4249,12.9080,320.4974,0,U,42814,999,3278,0,.156E-5,0
GSAT-17,2017-040B,2026-06-15T01:16:38.720352,1.00268994,.0002096,0.0205,356.4884,309.5525,69.9627,0,U,42815,999,3276,0,0,0
